NORAD_CAT_ID,OBJECT_NAME,OBJECT_TYPE,EPOCH,MEAN_MOTION,ECCENTRICITY,INCLINATION,RA_OF_ASC_NODE,ARG_OF_PERICENTER,MEAN_ANOMALY,BSTAR,MEAN_MOTION_DOT,MEAN_MOTION_DDOT,TLE_LINE0,TLE_LINE1,TLE_LINE2,SEMIMAJOR_AXIS,PERIOD,APOGEE,PERIGEE,DECAYED
51859.0,STARLINK-3560,PAYLOAD,2022-07-19 06:00:00,15.08841581,0.0001905,53.2146,217.1979,54.5801,126.9301,-0.0023463,-0.00037438,0.0,0 STARLINK-3560,1 51859U 22022H   22200.25001157 -.00037438  00000-0 -23463-2 0  9990,2 51859  53.2146 217.1979 0001905  54.5801 126.9301 15.08841581 22451,6917.876,95.437,541.058,538.423,0.0
51859.0,STARLINK-3560,PAYLOAD,2022-07-19 14:00:01,15.08822818,0.0001989,53.2142,215.7019,51.7808,141.3049,0.00029332,4.381e-05,0.0,0 STARLINK-3560,1 51859U 22022H   22200.58334491  .00004381  00000-0  29332-3 0  9997,2 51859  53.2142 215.7019 0001989  51.7808 141.3049 15.08822818  1307,6917.933000000001,95.439,541.174,538.422,0.0
51859.0,STARLINK-3560,PAYLOAD,2022-07-19 22:00:00,15.08800599,0.0001818,53.2156,214.2048,55.9788,148.6913,0.0032292,0.00051425,0.0,0 STARLINK-3560,1 51859U 22022H   22200.91667824  .00051425  00000-0  32292-2 0  9992,2 51859  53.2156 214.2048 0001818  55.9788 148.6913 15.08800599  1304,6918.001,95.44,541.124,538.6080000000002,0.0
51859.0,STARLINK-3560,PAYLOAD,2022-07-20 14:00:01,15.08838228,0.0002005999999999,53.2139,211.2127,53.5473,174.2821,-0.00032358,-5.434e-05,0.0,0 STARLINK-3560,1 51859U 22022H   22201.58334491 -.00005434  00000-0 -32358-3 0  9992,2 51859  53.2139 211.2127 0002006  53.5473 174.2821 15.08838228  1308,6917.886,95.438,541.139,538.363,0.0
51859.0,STARLINK-3560,PAYLOAD,2022-07-20 22:00:01,15.08814726,0.0001891,53.2147,209.7151,60.2066,179.2809,0.0023843,0.00037836,0.0,0 STARLINK-3560,1 51859U 22022H   22201.91668981  .00037836  00000-0  23843-2 0  9990,2 51859  53.2147 209.7151 0001891  60.2066 179.2809 15.08814726  1308,6917.958000000001,95.439,541.131,538.514,0.0
51859.0,STARLINK-3560,PAYLOAD,2022-07-21 14:00:01,15.08847778,0.0002055,53.2136,206.7234,54.2001,208.4574,-0.0010189,-0.00016471,0.0,0 STARLINK-3560,1 51859U 22022H   22202.58335648 -.00016471  00000-0 -10189-2 0  9998,2 51859  53.2136 206.7234 0002055  54.2001 208.4574 15.08847778  1307,6917.857,95.437,541.143,538.3,0.0
51859.0,STARLINK-3560,PAYLOAD,2022-07-21 22:00:00,15.08820712,0.000198,53.2136,205.2254,60.4076,213.792,0.0026043,0.00041382,0.0,0 STARLINK-3560,1 51859U 22022H   22202.91667824  .00041382  00000-0  26043-2 0  9992,2 51859  53.2136 205.2254 0001980  60.4076 213.7920 15.08820712  1303,6917.939,95.439,541.174,538.435,0.0
51859.0,STARLINK-3560,PAYLOAD,2022-07-22 06:00:00,15.08850209,0.0002133,53.2136,203.7306,57.0088,228.7827,-0.0010445,-0.00016878,0.0,0 STARLINK-3560,1 51859U 22022H   22203.25001157 -.00016878  00000-0 -10445-2 0  9994,2 51859  53.2136 203.7306 0002133  57.0088 228.7827 15.08850209  1306,6917.849,95.437,541.19,538.239,0.0
51859.0,STARLINK-3560,PAYLOAD,2022-07-22 12:00:00,15.08834,0.0002166999999999,53.2136,202.6086,54.0662,150.4283,0.0018941,0.00029981,0.0,0 STARLINK-3560,1 51859U 22022H   22203.50001157  .00029981  00000-0  18941-2 0  9998,2 51859  53.2136 202.6086 0002167  54.0662 150.4283 15.08834000 22942,6917.899,95.438,541.263,538.265,0.0
51859.0,STARLINK-3560,PAYLOAD,2022-07-22 22:00:00,15.08835181,0.0002045999999999,53.2137,200.736,60.7179,248.2854,0.0020507,0.00032496,0.0,0 STARLINK-3560,1 51859U 22022H   22203.91667824  .00032496  00000-0  20507-2 0  9998,2 51859  53.2137 200.7360 0002046  60.7179 248.2854 15.08835181  1308,6917.895,95.438,541.1759999999998,538.345,0.0
51859.0,STARLINK-3560,PAYLOAD,2022-07-23 08:00:01,15.08828052,0.0002181,53.2139,198.8674,55.1967,358.3221,0.00010389,1.365e-05,0.0,0 STARLINK-3560,1 51859U 22022H   22204.33334491  .00001365  00000-0  10389-3 0  9995,2 51859  53.2139 198.8674 0002181  55.1967 358.3221 15.08828052 23076,6917.917,95.438,541.2909999999998,538.273,0.0
51859.0,STARLINK-3560,PAYLOAD,2022-07-23 14:00:01,15.08844999,0.000212,53.2137,197.7445,53.7904,278.4686,-0.0017690999999999,-0.00028338,0.0,0 STARLINK-3560,1 51859U 22022H   22204.58335648 -.00028338  00000-0 -17691-2 0  9990,2 51859  53.2137 197.7445 0002120  53.7904 278.4686 15.08844999  1303,6917.865,95.437,541.197,538.264,0.0
51859.0,STARLINK-3560,PAYLOAD,2022-07-23 22:00:00,15.088190099999998,0.0002054,53.214,196.2467,60.4043,283.392,0.0026903,0.00042764,0.0,0 STARLINK-3560,1 51859U 22022H   22204.91667824  .00042764  00000-0  26903-2 0  9994,2 51859  53.2140 196.2467 0002054  60.4043 283.3920 15.08819010  1302,6917.945,95.439,541.23,538.389,0.0
51859.0,STARLINK-3560,PAYLOAD,2022-07-24 14:00:01,15.08858978,0.0002177,53.214,193.255,55.1867,311.7863,-0.0019678,-0.00031487,0.0,0 STARLINK-3560,1 51859U 22022H   22205.58334491 -.00031487  00000-0 -19678-2 0  9992,2 51859  53.2140 193.2550 0002177  55.1867 311.7863 15.08858978 23260,6917.821999999999,95.436,541.193,538.181,0.0
51859.0,STARLINK-3560,PAYLOAD,2022-07-24 22:00:00,15.08840184,0.0002051,53.2142,191.7574,60.8284,317.752,-0.00060611,-9.922e-05,0.0,0 STARLINK-3560,1 51859U 22022H   22205.91667824 -.00009922  00000-0 -60611-3 0  9991,2 51859  53.2142 191.7574 0002051  60.8284 317.7520 15.08840184  1305,6917.88,95.438,541.164,538.326,0.0
51859.0,STARLINK-3560,PAYLOAD,2022-07-25 14:00:01,15.08839464,0.0002112,53.214,188.7656,55.4235,346.3168,-0.0021463,-0.00034285,0.0,0 STARLINK-3560,1 51859U 22022H   22206.58334491 -.00034285  00000-0 -21463-2 0  9997,2 51859  53.2140 188.7656 0002112  55.4235 346.3168 15.08839464  1309,6917.882,95.438,541.2080000000002,538.286,0.0
51859.0,STARLINK-3560,PAYLOAD,2022-07-25 22:00:00,15.08814738,0.0002026,53.2143,187.2682,61.832,351.4909,0.0019492,0.00030849,0.0,0 STARLINK-3560,1 51859U 22022H   22206.91667824  .00030849  00000-0  19492-2 0  9992,2 51859  53.2143 187.2682 0002026  61.8320 351.4909 15.08814738  1302,6917.958000000001,95.439,541.224,538.4209999999998,0.0
51859.0,STARLINK-3560,PAYLOAD,2022-07-26 06:00:00,15.08829812,0.0002183,53.2142,185.7735,57.2709,7.6317,-0.00058314,-9.555e-05,0.0,0 STARLINK-3560,1 51859U 22022H   22207.25001157 -.00009555  00000-0 -58314-3 0  9990,2 51859  53.2142 185.7735 0002183  57.2709   7.6317 15.08829812 23516,6917.9119999999975,95.438,541.2869999999998,538.266,0.0
51859.0,STARLINK-3560,PAYLOAD,2022-07-26 14:00:01,15.08846039,0.0002116,53.214,184.2763,57.8728,18.6048,-0.0021287,-0.00034014,0.0,0 STARLINK-3560,1 51859U 22022H   22207.58334491 -.00034014  00000-0 -21287-2 0  9992,2 51859  53.2140 184.2763 0002116  57.8728  18.6048 15.08846039  1308,6917.861999999999,95.437,541.191,538.263,0.0
51859.0,STARLINK-3560,PAYLOAD,2022-07-26 22:00:00,15.08825703,0.0002055,53.2142,182.779,64.0223,24.0432,0.0014529999999999,0.00022903,0.0,0 STARLINK-3560,1 51859U 22022H   22207.91667824  .00022903  00000-0  14530-2 0  9993,2 51859  53.2142 182.7790 0002055  64.0223  24.0432 15.08825703  1308,6917.924,95.438,541.211,538.367,0.0
51859.0,STARLINK-3560,PAYLOAD,2022-07-27 06:00:02,15.08841985,0.0002014,53.2141,181.2843,53.7773,45.997,-0.00020192,-3.501e-05,0.0,0 STARLINK-3560,1 51859U 22022H   22208.25002315 -.00003501  00000-0 -20192-3 0  9996,2 51859  53.2141 181.2843 0002014  53.7773  45.9970 15.08841985 23662,6917.874,95.437,541.133,538.346,0.0
51859.0,STARLINK-3560,PAYLOAD,2022-07-27 14:00:01,15.08868279,0.0001909,53.2139,179.787,53.97,57.3342,-0.004958,-0.00078399,0.0,0 STARLINK-3560,1 51859U 22022H   22208.58334491 -.00078399  00000-0 -49580-2 0  9993,2 51859  53.2139 179.7870 0001909  53.9700  57.3342 15.08868279  1307,6917.794,95.436,540.98,538.3380000000002,0.0
51859.0,STARLINK-3560,PAYLOAD,2022-07-27 22:00:00,15.08818593,0.0001815,53.2141,178.2898,59.2806,63.6188,0.00099451,0.00015566,0.0,0 STARLINK-3560,1 51859U 22022H   22208.91667824  .00015566  00000-0  99451-3 0  9997,2 51859  53.2141 178.2898 0001815  59.2806  63.6188 15.08818593  1308,6917.946,95.439,541.066,538.555,0.0
51859.0,STARLINK-3560,PAYLOAD,2022-07-28 14:00:01,15.08839892,0.0001906999999999,53.2138,175.2979,54.9454,91.1005,-0.0019402,-0.00031034,0.0,0 STARLINK-3560,1 51859U 22022H   22209.58334491 -.00031034  00000-0 -19402-2 0  9999,2 51859  53.2138 175.2979 0001907  54.9454  91.1005 15.08839892  1303,6917.880999999999,95.438,541.065,538.4259999999998,0.0
51859.0,STARLINK-3560,PAYLOAD,2022-07-28 22:00:00,15.0883079,0.0001899999999999,53.2142,173.8008,60.6289,96.997,0.00064418,9.976e-05,0.0,0 STARLINK-3560,1 51859U 22022H   22209.91667824  .00009976  00000-0  64418-3 0  9991,2 51859  53.2142 173.8008 0001900  60.6289  96.9970 15.08830790  1300,6917.909000000002,95.438,541.0880000000002,538.4590000000002,0.0
51859.0,STARLINK-3560,PAYLOAD,2022-07-29 00:00:00,15.08843966,0.0001919,53.2141,173.4273,59.3428,191.1763,-0.0010962,-0.00017694,0.0,0 STARLINK-3560,1 51859U 22022H   22210.00001157 -.00017694  00000-0 -10962-2 0  9996,2 51859  53.2141 173.4273 0001919  59.3428 191.1763 15.08843966 23928,6917.868,95.437,541.061,538.406,0.0
51859.0,STARLINK-3560,PAYLOAD,2022-07-29 14:00:01,15.0884756,0.0001978,53.2142,170.8086,55.9958,124.7979,-0.0018362,-0.00029399,0.0,0 STARLINK-3560,1 51859U 22022H   22210.58334491 -.00029399  00000-0 -18362-2 0  9996,2 51859  53.2142 170.8086 0001978  55.9958 124.7979 15.08847560  1300,6917.857,95.437,541.091,538.354,0.0
51859.0,STARLINK-3560,PAYLOAD,2022-07-29 22:00:00,15.0882867,0.0001947,53.2146,169.3118,61.2172,131.1368,0.00027263,4.052e-05,0.0,0 STARLINK-3560,1 51859U 22022H   22210.91667824  .00004052  00000-0  27263-3 0  9990,2 51859  53.2146 169.3118 0001947  61.2172 131.1368 15.08828670  1302,6917.915,95.438,541.127,538.433,0.0
51859.0,STARLINK-3560,PAYLOAD,2022-07-30 06:00:00,15.08813049,0.0002117,53.2147,167.8172,54.8198,149.1216,0.0015439,0.00024351,0.0,0 STARLINK-3560,1 51859U 22022H   22211.25001157  .00024351  00000-0  15439-2 0  9994,2 51859  53.2147 167.8172 0002117  54.8198 149.1216 15.08813049 24111,6917.9630000000025,95.439,541.2919999999998,538.363,0.0
